{
  "type": "FeatureCollection",
  "features": [
    {
      "type": "Feature",
      "properties": {
        "norad_id": 35583,
        "name": "COSMOS 2251 DEB",
        "group": "cosmos-2251-debris",
        "lat": 50.10674083340475,
        "lon": -0.3241209051223888,
        "alt_km": 1066.089747369494,
        "timestamp": "2025-12-20T05:41:50.427592+00:00",
        "meta_object_name": "COSMOS 2251 DEB",
        "meta_object_id": "1993-036AMA",
        "meta_epoch": "2025-12-18T06:58:43.029120",
        "meta_mean_motion": 13.55345124,
        "meta_eccentricity": 0.0385225,
        "meta_inclination": 73.916,
        "meta_ra_of_asc_node": 203.0196,
        "meta_arg_of_pericenter": 226.35,
        "meta_mean_anomaly": 130.5073,
        "meta_ephemeris_type": 0,
        "meta_classification_type": "U",
        "meta_norad_cat_id": 35583,
        "meta_element_set_no": 999,
        "meta_rev_at_epoch": 82487,
        "meta_bstar": 0.00067393273,
        "meta_mean_motion_dot": 7.28e-06,
        "meta_mean_motion_ddot": 0,
        "tle_line1": "1 35583U 93036AMA 25352.29077580  .00000728  00000+0  67393-3 0  9997",
        "tle_line2": "2 35583  73.9160 203.0196 0385225 226.3500 130.5073 13.55345124824877"
      },
      "geometry": {
        "type": "Point",
        "coordinates": [
          -0.3241209051223888,
          50.10674083340475
        ]
      }
    },
    {
      "type": "Feature",
      "properties": {
        "norad_id": 35585,
        "name": "COSMOS 2251 DEB",
        "group": "cosmos-2251-debris",
        "lat": -72.94351221490412,
        "lon": -134.57093920343144,
        "alt_km": 769.0432690633215,
        "timestamp": "2025-12-20T05:41:50.427602+00:00",
        "meta_object_name": "COSMOS 2251 DEB",
        "meta_object_id": "1993-036AMC",
        "meta_epoch": "2025-12-18T09:07:12.258336",
        "meta_mean_motion": 13.75264082,
        "meta_eccentricity": 0.03105119,
        "meta_inclination": 73.9723,
        "meta_ra_of_asc_node": 338.9941,
        "meta_arg_of_pericenter": 250.1355,
        "meta_mean_anomaly": 180.5614,
        "meta_ephemeris_type": 0,
        "meta_classification_type": "U",
        "meta_norad_cat_id": 35585,
        "meta_element_set_no": 999,
        "meta_rev_at_epoch": 64141,
        "meta_bstar": 0.00084480695,
        "meta_mean_motion_dot": 1.126e-05,
        "meta_mean_motion_ddot": 0,
        "tle_line1": "1 35585U 93036AMC 25352.38000299  .00001126  00000+0  84481-3 0  9992",
        "tle_line2": "2 35585  73.9723 338.9941 0310511 250.1355 180.5614 13.75264082641417"
      },
      "geometry": {
        "type": "Point",
        "coordinates": [
          -134.57093920343144,
          -72.94351221490412
        ]
      }
    },
    {
      "type": "Feature",
      "properties": {
        "norad_id": 35586,
        "name": "COSMOS 2251 DEB",
        "group": "cosmos-2251-debris",
        "lat": -8.319911953092916,
        "lon": 112.86827700816461,
        "alt_km": 791.8341809756776,
        "timestamp": "2025-12-20T05:41:50.427613+00:00",
        "meta_object_name": "COSMOS 2251 DEB",
        "meta_object_id": "1993-036AMD",
        "meta_epoch": "2025-12-18T14:35:36.885984",
        "meta_mean_motion": 13.5208875,
        "meta_eccentricity": 0.04044314,
        "meta_inclination": 74.0204,
        "meta_ra_of_asc_node": 293.076,
        "meta_arg_of_pericenter": 167.1463,
        "meta_mean_anomaly": 11.7227,
        "meta_ephemeris_type": 0,
        "meta_classification_type": "U",
        "meta_norad_cat_id": 35586,
        "meta_element_set_no": 999,
        "meta_rev_at_epoch": 60461,
        "meta_bstar": 0.00023975249,
        "meta_mean_motion_dot": 2.44e-06,
        "meta_mean_motion_ddot": 0,
        "tle_line1": "1 35586U 93036AMD 25352.60806581  .00000244  00000+0  23975-3 0  9997",
        "tle_line2": "2 35586  74.0204 293.0760 0404431 167.1463  11.7227 13.52088750604613"
      },
      "geometry": {
        "type": "Point",
        "coordinates": [
          112.86827700816461,
          -8.319911953092916
        ]
      }
    },
    {
      "type": "Feature",
      "properties": {
        "norad_id": 35587,
        "name": "COSMOS 2251 DEB",
        "group": "cosmos-2251-debris",
        "lat": 34.79304448041665,
        "lon": 55.31966882060259,
        "alt_km": 723.5653097641507,
        "timestamp": "2025-12-20T05:41:50.427623+00:00",
        "meta_object_name": "COSMOS 2251 DEB",
        "meta_object_id": "1993-036AME",
        "meta_epoch": "2025-12-19T21:22:17.269824",
        "meta_mean_motion": 14.71544302,
        "meta_eccentricity": 0.01023917,
        "meta_inclination": 74.0049,
        "meta_ra_of_asc_node": 44.4984,
        "meta_arg_of_pericenter": 230.5816,
        "meta_mean_anomaly": 128.6259,
        "meta_ephemeris_type": 0,
        "meta_classification_type": "U",
        "meta_norad_cat_id": 35587,
        "meta_element_set_no": 999,
        "meta_rev_at_epoch": 66451,
        "meta_bstar": 0.00018067411,
        "meta_mean_motion_dot": 1.181e-05,
        "meta_mean_motion_ddot": 0,
        "tle_line1": "1 35587U 93036AME 25353.89047766  .00001181  00000+0  18067-3 0  9999",
        "tle_line2": "2 35587  74.0049  44.4984 0102391 230.5816 128.6259 14.71544302664514"
      },
      "geometry": {
        "type": "Point",
        "coordinates": [
          55.31966882060259,
          34.79304448041665
        ]
      }
    },
    {
      "type": "Feature",
      "properties": {
        "norad_id": 35593,
        "name": "COSMOS 2251 DEB",
        "group": "cosmos-2251-debris",
        "lat": 10.181158359355665,
        "lon": -82.10593950517286,
        "alt_km": 808.1576022579238,
        "timestamp": "2025-12-20T05:41:50.427633+00:00",
        "meta_object_name": "COSMOS 2251 DEB",
        "meta_object_id": "1993-036AML",
        "meta_epoch": "2025-12-16T02:16:58.534752",
        "meta_mean_motion": 14.25610716,
        "meta_eccentricity": 0.01051822,
        "meta_inclination": 74.086,
        "meta_ra_of_asc_node": 282.4096,
        "meta_arg_of_pericenter": 288.161,
        "meta_mean_anomaly": 70.8107,
        "meta_ephemeris_type": 0,
        "meta_classification_type": "U",
        "meta_norad_cat_id": 35593,
        "meta_element_set_no": 999,
        "meta_rev_at_epoch": 85113,
        "meta_bstar": 0.00056549388,
        "meta_mean_motion_dot": 1.393e-05,
        "meta_mean_motion_ddot": 0,
        "tle_line1": "1 35593U 93036AML 25350.09512193  .00001393  00000+0  56549-3 0  9998",
        "tle_line2": "2 35593  74.0860 282.4096 0105182 288.1610  70.8107 14.25610716851130"
      },
      "geometry": {
        "type": "Point",
        "coordinates": [
          -82.10593950517286,
          10.181158359355665
        ]
      }
    },
    {
      "type": "Feature",
      "properties": {
        "norad_id": 35594,
        "name": "COSMOS 2251 DEB",
        "group": "cosmos-2251-debris",
        "lat": -15.920375349839667,
        "lon": -83.87008284180227,
        "alt_km": 587.6647109641135,
        "timestamp": "2025-12-20T05:41:50.427643+00:00",
        "meta_object_name": "COSMOS 2251 DEB",
        "meta_object_id": "1993-036AMM",
        "meta_epoch": "2025-12-17T17:07:08.312160",
        "meta_mean_motion": 14.88085261,
        "meta_eccentricity": 0.00295539,
        "meta_inclination": 73.8085,
        "meta_ra_of_asc_node": 96.479,
        "meta_arg_of_pericenter": 207.6965,
        "meta_mean_anomaly": 152.2642,
        "meta_ephemeris_type": 0,
        "meta_classification_type": "U",
        "meta_norad_cat_id": 35594,
        "meta_element_set_no": 999,
        "meta_rev_at_epoch": 88259,
        "meta_bstar": 0.0013790172,
        "meta_mean_motion_dot": 0.00012773,
        "meta_mean_motion_ddot": 0,
        "tle_line1": "1 35594U 93036AMM 25351.71329065  .00012773  00000+0  13790-2 0  9997",
        "tle_line2": "2 35594  73.8085  96.4790 0029553 207.6965 152.2642 14.88085261882590"
      },
      "geometry": {
        "type": "Point",
        "coordinates": [
          -83.87008284180227,
          -15.920375349839667
        ]
      }
    },
    {
      "type": "Feature",
      "properties": {
        "norad_id": 35602,
        "name": "COSMOS 2251 DEB",
        "group": "cosmos-2251-debris",
        "lat": 40.5080737756351,
        "lon": -28.114123569780986,
        "alt_km": 458.80641063625444,
        "timestamp": "2025-12-20T05:41:50.427653+00:00",
        "meta_object_name": "COSMOS 2251 DEB",
        "meta_object_id": "1993-036AMV",
        "meta_epoch": "2025-12-19T12:02:08.754144",
        "meta_mean_motion": 15.3532305,
        "meta_eccentricity": 0.0089059,
        "meta_inclination": 73.9924,
        "meta_ra_of_asc_node": 167.6664,
        "meta_arg_of_pericenter": 231.9555,
        "meta_mean_anomaly": 160.7824,
        "meta_ephemeris_type": 0,
        "meta_classification_type": "U",
        "meta_norad_cat_id": 35602,
        "meta_element_set_no": 999,
        "meta_rev_at_epoch": 90195,
        "meta_bstar": 0.00042337,
        "meta_mean_motion_dot": 0.00016543,
        "meta_mean_motion_ddot": 0,
        "tle_line1": "1 35602U 93036AMV 25353.50149021  .00016543  00000+0  42337-3 0  9997",
        "tle_line2": "2 35602  73.9924 167.6664 0089059 231.9555 160.7824 15.35323050901958"
      },
      "geometry": {
        "type": "Point",
        "coordinates": [
          -28.114123569780986,
          40.5080737756351
        ]
      }
    }
  ]
}